NORAD_CAT_ID,OBJECT_NAME,OBJECT_TYPE,EPOCH,MEAN_MOTION,ECCENTRICITY,INCLINATION,RA_OF_ASC_NODE,ARG_OF_PERICENTER,MEAN_ANOMALY,BSTAR,MEAN_MOTION_DOT,MEAN_MOTION_DDOT,TLE_LINE0,TLE_LINE1,TLE_LINE2,SEMIMAJOR_AXIS,PERIOD,APOGEE,PERIGEE,DECAYED
55412.0,STARLINK-5033,PAYLOAD,2024-03-09 11:02:10,14.98329077,0.0002833,69.9996,125.5148,264.2767,95.8069,-8.4742e-05,-1.104e-05,0.0,0 STARLINK-5033,1 55412U 23014X   24069.45983904 -.00001104  00000-0 -84742-4 0  9997,2 55412  69.9996 125.5148 0002833 264.2767  95.8069 14.98329077 62187,6950.196,96.107,574.03,570.092,0.0
55412.0,STARLINK-5033,PAYLOAD,2024-03-09 20:38:58,14.98341903,0.0002901,69.9997,124.5047,267.9243,92.1584,-0.0002721,-3.339e-05,0.0,0 STARLINK-5033,1 55412U 23014X   24069.86039471 -.00003339  00000-0 -27210-3 0  9991,2 55412  69.9997 124.5047 0002901 267.9243  92.1584 14.98341903 62241,6950.156,96.106,574.037,570.005,0.0
55412.0,STARLINK-5033,PAYLOAD,2024-03-10 14:16:26,14.9833529,0.0002893,69.9991,122.6523,268.6944,91.3884,1.8991e-05,1.34e-06,0.0,0 STARLINK-5033,1 55412U 23014X   24070.59475087  .00000134  00000-0  18991-4 0  9995,2 55412  69.9991 122.6523 0002893 268.6944  91.3884 14.98335290 62357,6950.177,96.107,574.052,570.031,0.0
55412.0,STARLINK-5033,PAYLOAD,2024-03-10 20:40:58,14.98332031,0.0002866,69.9991,121.979,268.6835,91.3995,2.0073e-05,1.47e-06,0.0,0 STARLINK-5033,1 55412U 23014X   24070.86179234  .00000147  00000-0  20073-4 0  9998,2 55412  69.9991 121.9790 0002866 268.6835  91.3995 14.98332031 61457,6950.187,96.107,574.044,570.06,0.0
55412.0,STARLINK-5033,PAYLOAD,2024-03-11 11:06:11,14.98328417,0.0002955,69.9989,120.4637,268.0847,91.9974,3.7979e-05,3.6e-06,0.0,0 STARLINK-5033,1 55412U 23014X   24071.46263386  .00000360  00000-0  37979-4 0  9997,2 55412  69.9989 120.4637 0002955 268.0847  91.9974 14.98328417 62484,6950.198,96.107,574.117,570.009,0.0
55412.0,STARLINK-5033,PAYLOAD,2024-03-11 20:43:00,14.98322608,0.0002993,69.9984,119.4526,273.2705,86.8111,7.6217e-05,8.16e-06,0.0,0 STARLINK-5033,1 55412U 23014X   24071.86319720  .00000816  00000-0  76217-4 0  9999,2 55412  69.9984 119.4526 0002993 273.2705  86.8111 14.98322608 61602,6950.216,96.107,574.161,570.001,0.0
55412.0,STARLINK-5033,PAYLOAD,2024-03-12 04:43:42,14.9830063,0.0003055,69.999,118.6123,267.7442,92.3367,-0.00035631,-4.339e-05,0.0,0 STARLINK-5033,1 55412U 23014X   24072.19702440 -.00004339  00000-0 -35631-3 0  9991,2 55412  69.9990 118.6123 0003055 267.7442  92.3367 14.98300630 61650,6950.284,96.109,574.272,570.025,0.0
55412.0,STARLINK-5033,PAYLOAD,2024-03-12 20:45:03,14.98310448,0.0003251,69.9992,116.9266,262.2331,97.8459,-0.00019503,-2.418e-05,0.0,0 STARLINK-5033,1 55412U 23014X   24072.86462369 -.00002418  00000-0 -19503-3 0  9994,2 55412  69.9992 116.9266 0003251 262.2331  97.8459 14.98310448 62691,6950.253,96.108,574.378,569.859,0.0
55412.0,STARLINK-5033,PAYLOAD,2024-03-13 04:45:43,14.9831381,0.0003885,69.9993,116.087,266.1741,93.8974,-1.6635e-05,-2.92e-06,0.0,0 STARLINK-5033,1 55412U 23014X   24073.19841774 -.00000292  00000-0 -16635-4 0  9994,2 55412  69.9993 116.0870 0003885 266.1741  93.8974 14.98313810 61801,6950.243,96.108,574.808,569.408,0.0
55412.0,STARLINK-5033,PAYLOAD,2024-03-13 11:10:14,14.98331326,0.0003242,69.9984,115.4132,267.3702,92.7086,6.1283e-05,6.38e-06,0.0,0 STARLINK-5033,1 55412U 23014X   24073.46544708  .00000638  00000-0  61283-4 0  9992,2 55412  69.9984 115.4132 0003242 267.3702  92.7086 14.98331326 61840,6950.189,96.107,574.307,569.801,0.0
55412.0,STARLINK-5033,PAYLOAD,2024-03-14 06:23:50,14.98327392,0.0003268,69.9986,113.3934,265.755,94.3236,0.00044734,5.248e-05,0.0,0 STARLINK-5033,1 55412U 23014X   24074.26655763  .00005248  00000-0  44734-3 0  9998,2 55412  69.9986 113.3934 0003268 265.7550  94.3236 14.98327392 62901,6950.201,96.107,574.337,569.795,0.0
55412.0,STARLINK-5033,PAYLOAD,2024-03-14 12:48:22,14.98330794,0.0003285,69.9985,112.72,265.9918,94.0866,0.00044719,5.247e-05,0.0,0 STARLINK-5033,1 55412U 23014X   24074.53359533  .00005247  00000-0  44719-3 0  9996,2 55412  69.9985 112.7200 0003285 265.9918  94.0866 14.98330794 62005,6950.19,96.107,574.339,569.772,0.0
55412.0,STARLINK-5033,PAYLOAD,2024-03-15 11:14:15,14.98339799,0.0003025,69.9992,110.3646,262.1569,97.9247,-1.5683e-05,-2.8e-06,0.0,0 STARLINK-5033,1 55412U 23014X   24075.46823740 -.00000280  00000-0 -15683-4 0  9998,2 55412  69.9992 110.3646 0003025 262.1569  97.9247 14.98339799 62148,6950.163,96.106,574.13,569.925,0.0
55412.0,STARLINK-5033,PAYLOAD,2024-03-16 11:16:16,14.98340221,0.0003284,69.9981,107.8381,266.4728,93.6055,-0.00014055,-1.77e-05,0.0,0 STARLINK-5033,1 55412U 23014X   24076.46963195 -.00001770  00000-0 -14055-3 0  9994,2 55412  69.9981 107.8381 0003284 266.4728  93.6055 14.98340221 62292,6950.161,96.106,574.309,569.744,0.0
55412.0,STARLINK-5033,PAYLOAD,2024-03-17 11:18:17,14.98332096,0.0003273,69.998,105.3132,266.8738,93.2047,-6.521e-05,-8.71e-06,0.0,0 STARLINK-5033,1 55412U 23014X   24077.47103134 -.00000871  00000-0 -65210-4 0  9996,2 55412  69.9980 105.3132 0003273 266.8738  93.2047 14.98332096 62446,6950.186,96.107,574.326,569.777,0.0
55412.0,STARLINK-5033,PAYLOAD,2024-03-18 11:20:18,14.98328869,0.0003266,69.998,102.788,265.9024,94.1762,1.8936e-06,-7e-07,0.0,0 STARLINK-5033,1 55412U 23014X   24078.47243130 -.00000070  00000-0  18936-5 0  9992,2 55412  69.9980 102.7880 0003266 265.9024  94.1762 14.98328869 62590,6950.196,96.107,574.331,569.791,0.0
55412.0,STARLINK-5033,PAYLOAD,2024-03-19 11:22:18,14.98332171,0.0003219,69.9982,100.2635,266.0165,94.0626,4.8222e-05,4.82e-06,0.0,0 STARLINK-5033,1 55412U 23014X   24079.47382749  .00000482  00000-0  48222-4 0  9999,2 55412  69.9982 100.2635 0003219 266.0165  94.0626 14.98332171 62745,6950.186,96.107,574.288,569.814,0.0
55412.0,STARLINK-5033,PAYLOAD,2024-03-20 11:24:19,14.98331501,0.0003173,69.9983,97.7386,265.3267,94.7529,2.3142e-05,1.83e-06,0.0,0 STARLINK-5033,1 55412U 23014X   24080.47522738  .00000183  00000-0  23142-4 0  9997,2 55412  69.9983  97.7386 0003173 265.3267  94.7529 14.98331501 63839,6950.188,96.107,574.259,569.848,0.0
55412.0,STARLINK-5033,PAYLOAD,2024-03-21 09:50:12,14.98330351,0.000309,69.9985,95.3822,265.9545,94.1261,-2.8183e-05,-4.29e-06,0.0,0 STARLINK-5033,1 55412U 23014X   24081.40986878 -.00000429  00000-0 -28183-4 0  9995,2 55412  69.9985  95.3822 0003090 265.9545  94.1261 14.98330351 63977,6950.192,96.107,574.204,569.909,0.0
55412.0,STARLINK-5033,PAYLOAD,2024-03-21 17:50:52,14.98330874,0.0003101,69.9985,94.5404,267.6274,92.453,-1.7123e-05,-2.97e-06,0.0,0 STARLINK-5033,1 55412U 23014X   24081.74366796 -.00000297  00000-0 -17123-4 0  9998,2 55412  69.9985  94.5404 0003101 267.6274  92.4530 14.98330874 63087,6950.19,96.107,574.21,569.9,0.0
55412.0,STARLINK-5033,PAYLOAD,2024-03-22 09:52:13,14.98334114,0.000313,69.9983,92.857,266.7255,93.3546,2.887e-05,2.51e-06,0.0,0 STARLINK-5033,1 55412U 23014X   24082.41126310  .00000251  00000-0  28870-4 0  9998,2 55412  69.9983  92.8570 0003130 266.7255  93.3546 14.98334114 64125,6950.18,96.107,574.221,569.87,0.0
55412.0,STARLINK-5033,PAYLOAD,2024-03-23 03:29:42,14.98323548,0.0003076,69.9983,91.0053,266.4977,93.583,-4.227e-05,-5.97e-06,0.0,0 STARLINK-5033,1 55412U 23014X   24083.14563215 -.00000597  00000-0 -42270-4 0  9993,2 55412  69.9983  91.0053 0003076 266.4977  93.5830 14.98323548 63293,6950.213,96.107,574.216,569.94,0.0
55412.0,STARLINK-5033,PAYLOAD,2024-03-23 17:54:55,14.98326841,0.0003098,69.9984,89.4894,269.584,90.4964,-2.061e-05,-3.39e-06,0.0,0 STARLINK-5033,1 55412U 23014X   24083.74647137 -.00000339  00000-0 -20610-4 0  9993,2 55412  69.9984  89.4894 0003098 269.5840  90.4964 14.98326841 64323,6950.203,96.107,574.221,569.914,0.0
55412.0,STARLINK-5033,PAYLOAD,2024-03-24 05:07:51,14.98330998,0.0003102,69.9983,88.3115,270.3836,89.6967,-1.194e-05,-2.36e-06,0.0,0 STARLINK-5033,1 55412U 23014X   24084.21378866 -.00000236  00000-0 -11940-4 0  9998,2 55412  69.9983  88.3115 0003102 270.3836  89.6967 14.98330998 63451,6950.19,96.107,574.211,569.899,0.0
55412.0,STARLINK-5033,PAYLOAD,2024-03-24 09:56:15,14.98334134,0.0003082,69.9983,87.8062,269.8356,90.245,1.6575e-05,1.05e-06,0.0,0 STARLINK-5033,1 55412U 23014X   24084.41406554  .00000105  00000-0  16575-4 0  9998,2 55412  69.9983  87.8062 0003082 269.8356  90.2450 14.98334134 64422,6950.18,96.107,574.187,569.903,0.0
55412.0,STARLINK-5033,PAYLOAD,2024-03-25 05:09:52,14.98323832,0.0003018,69.9984,85.7856,269.6689,90.4124,4.3813e-05,4.3e-06,0.0,0 STARLINK-5033,1 55412U 23014X   24085.21519216  .00000430  00000-0  43813-4 0  9993,2 55412  69.9984  85.7856 0003018 269.6689  90.4124 14.98323832 63609,6950.212,96.107,574.175,569.979,0.0
55412.0,STARLINK-5033,PAYLOAD,2024-03-25 09:58:16,14.9832528,0.0003038,69.9985,85.2812,270.7471,89.334,5.302e-05,5.4e-06,0.0,0 STARLINK-5033,1 55412U 23014X   24085.41547164  .00000540  00000-0  53020-4 0  9991,2 55412  69.9985  85.2812 0003038 270.7471  89.3340 14.98325280 64574,6950.207,96.107,574.184,569.961,0.0
55412.0,STARLINK-5033,PAYLOAD,2024-03-26 05:11:53,14.98328126,0.0003007,69.9984,83.261,270.8232,89.2583,-3.4713e-05,-5.07e-06,0.0,0 STARLINK-5033,1 55412U 23014X   24086.21659357 -.00000507  00000-0 -34713-4 0  9991,2 55412  69.9984  83.2610 0003007 270.8232  89.2583 14.98328126 63758,6950.199,96.107,574.154,569.974,0.0
55412.0,STARLINK-5033,PAYLOAD,2024-03-26 10:00:17,14.98351971,0.0002846,69.9984,82.7559,275.5899,84.4936,-0.0003999,-4.864e-05,0.0,0 STARLINK-5033,1 55412U 23014X   24086.41686722 -.00004864  00000-0 -39990-3 0  9990,2 55412  69.9984  82.7559 0002846 275.5899  84.4936 14.98351971 63781,6950.125,96.106,573.968,570.012,0.0
55412.0,STARLINK-5033,PAYLOAD,2024-03-26 16:24:49,14.98334444,0.0002927,69.9987,82.0826,270.8873,89.1951,-6.1137e-05,-8.22e-06,0.0,0 STARLINK-5033,1 55412U 23014X   24086.68391020 -.00000822  00000-0 -61137-4 0  9992,2 55412  69.9987  82.0826 0002927 270.8873  89.1951 14.98334444 63824,6950.179,96.107,574.078,570.01,0.0
